ONEWEB-0379             
1 49305U 21090AC  25227.88165544  .00000087  00000+0  20104-3 0  9996
2 49305  87.9087 350.4660 0001963  97.1946 262.9407 13.14501765187459
ONEWEB-0380             
1 49306U 21090AD  25227.87088654  .00000059  00000+0  11406-3 0  9996
2 49306  87.9255   5.6711 0001840 103.4228 256.7110 13.19725145186154
ONEWEB-0381             
1 49307U 21090AE  25227.70694354  .00000057  00000+0  10734-3 0  9990
2 49307  87.9303 335.3163 0002117 105.6374 254.4993 13.20769918189501
ONEWEB-0382             
1 49308U 21090AF  25227.54279690  .00000102  00000+0  21851-3 0  9998
2 49308  87.9299 335.3401 0002266 102.5889 257.5498 13.20773371189471
ONEWEB-0383             
1 49309U 21090AG  25227.87531685  .00000241  00000+0  61496-3 0  9993
2 49309  87.9084 350.4466 0002009  96.6641 263.4718 13.14502731187480
ONEWEB-0384             
1 49310U 21090AH  25227.68973053  .00000013  00000+0 -90014-6 0  9992
2 49310  87.9311 335.3317 0002494 102.2119 257.9294 13.20787308189508
ONEWEB-0385             
1 49311U 21090AJ  25227.53491002  .00000101  00000+0  21529-3 0  9995
2 49311  87.9287 335.3555 0002058 101.5090 258.6274 13.20771113189458
ONEWEB-0386             
1 49312U 21090AK  25227.55226913  .00000111  00000+0  24055-3 0  9993
2 49312  87.9298 335.3250 0002221 100.5212 259.6172 13.20770810189473
